{"type": "FeatureCollection", "features": [ {"type": "Feature", "properties": {"norad_id": 66825, "name": "STARLINK-35476", "group": "last-30-days", "lat": -18.697692261018194, "lon": -170.04042104332697, "alt_km": 340.37102470852005, "timestamp": "2025-12-13T08:49:14.457886+00:00", "meta": {"OBJECT_NAME": "STARLINK-35476", "OBJECT_ID": "2025-280E", "EPOCH": "2025-12-12T20:00:01.999872", "MEAN_MOTION": 15.79771041, "ECCENTRICITY": 0.00036273, "INCLINATION": 69.9933, "RA_OF_ASC_NODE": 198.5643, "ARG_OF_PERICENTER": 271.915, "MEAN_ANOMALY": 273.1309, "EPHEMERIS_TYPE": 0, "CLASSIFICATION_TYPE": "U", "NORAD_CAT_ID": 66825, "ELEMENT_SET_NO": 999, "REV_AT_EPOCH": 276, "BSTAR": -0.010452723, "MEAN_MOTION_DOT": -0.0167346, "MEAN_MOTION_DDOT": 0}, "tle": {"line1": "1 66825U 25280E   25346.83335648 -.01673460  00000+0 -10453-1 0  9996", "line2": "2 66825  69.9933 198.5643 0003627 271.9150 273.1309 15.79771041  2769"}}, "geometry": {"type": "Point", "coordinates": [-170.04042104332697, -18.697692261018194]}}, {"type": "Feature", "properties": {"norad_id": 66826, "name": "STARLINK-35898", "group": "last-30-days", "lat": -16.956651100602787, "lon": -169.33794100008598, "alt_km": 340.39518167862116, "timestamp": "2025-12-13T08:49:14.457903+00:00", "meta": {"OBJECT_NAME": "STARLINK-35898", "OBJECT_ID": "2025-280F", "EPOCH": "2025-12-12T20:00:01.999872", "MEAN_MOTION": 15.79794425, "ECCENTRICITY": 0.00035466, "INCLINATION": 69.9933, "RA_OF_ASC_NODE": 198.5619, "ARG_OF_PERICENTER": 268.5834, "MEAN_ANOMALY": 278.2916, "EPHEMERIS_TYPE": 0, "CLASSIFICATION_TYPE": "U", "NORAD_CAT_ID": 66826, "ELEMENT_SET_NO": 999, "REV_AT_EPOCH": 291, "BSTAR": -0.01048395, "MEAN_MOTION_DOT": -0.01679253, "MEAN_MOTION_DDOT": 0}, "tle": {"line1": "1 66826U 25280F   25346.83335648 -.01679253  00000+0 -10484-1 0  9997", "line2": "2 66826  69.9933 198.5619 0003546 268.5834 278.2916 15.79794425  2912"}}, "geometry": {"type": "Point", "coordinates": [-169.33794100008598, -16.956651100602787]}}, {"type": "Feature", "properties": {"norad_id": 66827, "name": "STARLINK-35959", "group": "last-30-days", "lat": -15.070530700045312, "lon": -168.5924698259666, "alt_km": 340.0843174429492, "timestamp": "2025-12-13T08:49:14.457913+00:00", "meta": {"OBJECT_NAME": "STARLINK-35959", "OBJECT_ID": "2025-280G", "EPOCH": "2025-12-12T20:00:01.999872", "MEAN_MOTION": 15.79794376, "ECCENTRICITY": 0.00037011, "INCLINATION": 69.9931, "RA_OF_ASC_NODE": 198.5594, "ARG_OF_PERICENTER": 272.6903, "MEAN_ANOMALY": 276.2033, "EPHEMERIS_TYPE": 0, "CLASSIFICATION_TYPE": "U", "NORAD_CAT_ID": 66827, "ELEMENT_SET_NO": 999, "REV_AT_EPOCH": 291, "BSTAR": -0.010485584, "MEAN_MOTION_DOT": -0.01679648, "MEAN_MOTION_DDOT": 0}, "tle": {"line1": "1 66827U 25280G   25346.83335648 -.01679648  00000+0 -10486-1 0  9998", "line2": "2 66827  69.9931 198.5594 0003701 272.6903 276.2033 15.79794376  2912"}}, "geometry": {"type": "Point", "coordinates": [-168.5924698259666, -15.070530700045312]}}, {"type": "Feature", "properties": {"norad_id": 66828, "name": "STARLINK-35982", "group": "last-30-days", "lat": -11.192353850490935, "lon": -167.10116036282238, "alt_km": 340.0214520500822, "timestamp": "2025-12-13T08:49:14.457925+00:00", "meta": {"OBJECT_NAME": "STARLINK-35982", "OBJECT_ID": "2025-280H", "EPOCH": "2025-12-12T20:00:01.999872", "MEAN_MOTION": 15.79784341, "ECCENTRICITY": 0.00036163, "INCLINATION": 69.9931, "RA_OF_ASC_NODE": 198.5545, "ARG_OF_PERICENTER": 272.0194, "MEAN_ANOMALY": 281.0729, "EPHEMERIS_TYPE": 0, "CLASSIFICATION_TYPE": "U", "NORAD_CAT_ID": 66828, "ELEMENT_SET_NO": 999, "REV_AT_EPOCH": 291, "BSTAR": -0.010688711, "MEAN_MOTION_DOT": -0.01706907, "MEAN_MOTION_DDOT": 0}, "tle": {"line1": "1 66828U 25280H   25346.83335648 -.01706907  00000+0 -10689-1 0  9993", "line2": "2 66828  69.9931 198.5545 0003616 272.0194 281.0729 15.79784341  2917"}}, "geometry": {"type": "Point", "coordinates": [-167.10116036282238, -11.192353850490935]}}, {"type": "Feature", "properties": {"norad_id": 66829, "name": "STARLINK-36084", "group": "last-30-days", "lat": -13.136719763479702, "lon": -167.84260163213412, "alt_km": 340.04412043356115, "timestamp": "2025-12-13T08:49:14.457936+00:00", "meta": {"OBJECT_NAME": "STARLINK-36084", "OBJECT_ID": "2025-280J", "EPOCH": "2025-12-12T20:00:01.999872", "MEAN_MOTION": 15.79792609, "ECCENTRICITY": 0.0003605, "INCLINATION": 69.993, "RA_OF_ASC_NODE": 198.5569, "ARG_OF_PERICENTER": 273.4571, "MEAN_ANOMALY": 277.5374, "EPHEMERIS_TYPE": 0, "CLASSIFICATION_TYPE": "U", "NORAD_CAT_ID": 66829, "ELEMENT_SET_NO": 999, "REV_AT_EPOCH": 275, "BSTAR": -0.010650274, "MEAN_MOTION_DOT": -0.01702163, "MEAN_MOTION_DDOT": 0}, "tle": {"line1": "1 66829U 25280J   25346.83335648 -.01702163  00000+0 -10650-1 0  9992", "line2": "2 66829  69.9930 198.5569 0003605 273.4571 277.5374 15.79792609  2759"}}, "geometry": {"type": "Point", "coordinates": [-167.84260163213412, -13.136719763479702]}}, {"type": "Feature", "properties": {"norad_id": 66830, "name": "STARLINK-35881", "group": "last-30-days", "lat": -9.464365420603395, "lon": -166.45200682719383, "alt_km": 339.6632435819929, "timestamp": "2025-12-13T08:49:14.457946+00:00", "meta": {"OBJECT_NAME": "STARLINK-35881", "OBJECT_ID": "2025-280K", "EPOCH": "2025-12-12T20:00:01.999872", "MEAN_MOTION": 15.79805407, "ECCENTRICITY": 0.00035083, "INCLINATION": 69.9926, "RA_OF_ASC_NODE": 198.5518, "ARG_OF_PERICENTER": 276.102, "MEAN_ANOMALY": 278.7868, "EPHEMERIS_TYPE": 0, "CLASSIFICATION_TYPE": "U", "NORAD_CAT_ID": 66830, "ELEMENT_SET_NO": 999, "REV_AT_EPOCH": 291, "BSTAR": -0.010633459, "MEAN_MOTION_DOT": -0.017006, "MEAN_MOTION_DDOT": 0}, "tle": {"line1": "1 66830U 25280K   25346.83335648 -.01700600  00000+0 -10633-1 0  9999", "line2": "2 66830  69.9926 198.5518 0003508 276.1020 278.7868 15.79805407  2911"}}, "geometry": {"type": "Point", "coordinates": [-166.45200682719383, -9.464365420603395]}}, {"type": "Feature", "properties": {"norad_id": 66831, "name": "STARLINK-35788", "group": "last-30-days", "lat": -7.717431262845808, "lon": -165.8012162009643, "alt_km": 339.7520287129464, "timestamp": "2025-12-13T08:49:14.457956+00:00", "meta": {"OBJECT_NAME": "STARLINK-35788", "OBJECT_ID": "2025-280L", "EPOCH": "2025-12-12T20:00:01.999872", "MEAN_MOTION": 15.79833976, "ECCENTRICITY": 0.00036219, "INCLINATION": 69.9935, "RA_OF_ASC_NODE": 198.5503, "ARG_OF_PERICENTER": 270.085, "MEAN_ANOMALY": 286.6266, "EPHEMERIS_TYPE": 0, "CLASSIFICATION_TYPE": "U", "NORAD_CAT_ID": 66831, "ELEMENT_SET_NO": 999, "REV_AT_EPOCH": 291, "BSTAR": -0.010717603, "MEAN_MOTION_DOT": -0.01750142, "MEAN_MOTION_DDOT": 0}, "tle": {"line1": "1 66831U 25280L   25346.83335648 -.01750142  00000+0 -10718-1 0  9990", "line2": "2 66831  69.9935 198.5503 0003621 270.0850 286.6266 15.79833976  2918"}}, "geometry": {"type": "Point", "coordinates": [-165.8012162009643, -7.717431262845808]}}, {"type": "Feature", "properties": {"norad_id": 66832, "name": "STARLINK-35768", "group": "last-30-days", "lat": -5.9904647394155255, "lon": -165.16519223794648, "alt_km": 339.36505010208657, "timestamp": "2025-12-13T08:49:14.457966+00:00", "meta": {"OBJECT_NAME": "STARLINK-35768", "OBJECT_ID": "2025-280M", "EPOCH": "2025-12-12T20:00:01.999872", "MEAN_MOTION": 15.79855527, "ECCENTRICITY": 0.00036462, "INCLINATION": 69.9929, "RA_OF_ASC_NODE": 198.5475, "ARG_OF_PERICENTER": 273.5297, "MEAN_ANOMALY": 284.966, "EPHEMERIS_TYPE": 0, "CLASSIFICATION_TYPE": "U", "NORAD_CAT_ID": 66832, "ELEMENT_SET_NO": 999, "REV_AT_EPOCH": 291, "BSTAR": -0.010627894, "MEAN_MOTION_DOT": -0.01703374, "MEAN_MOTION_DDOT": 0}, "tle": {"line1": "1 66832U 25280M   25346.83335648 -.01703374  00000+0 -10628-1 0  9996", "line2": "2 66832  69.9929 198.5475 0003646 273.5297 284.9660 15.79855527  2915"}}, "geometry": {"type": "Point", "coordinates": [-165.16519223794648, -5.9904647394155255]}}, {"type": "Feature", "properties": {"norad_id": 66833, "name": "STARLINK-35858", "group": "last-30-days", "lat": -4.0255270758095, "lon": -164.44529873070184, "alt_km": 339.40921334360974, "timestamp": "2025-12-13T08:49:14.457978+00:00", "meta": {"OBJECT_NAME": "STARLINK-35858", "OBJECT_ID": "2025-280N", "EPOCH": "2025-12-12T20:00:01.999872", "MEAN_MOTION": 15.79845008, "ECCENTRICITY": 0.00036676, "INCLINATION": 69.9931, "RA_OF_ASC_NODE": 198.5454, "ARG_OF_PERICENTER": 270.62, "MEAN_ANOMALY": 290.0012, "EPHEMERIS_TYPE": 0, "CLASSIFICATION_TYPE": "U", "NORAD_CAT_ID": 66833, "ELEMENT_SET_NO": 999, "REV_AT_EPOCH": 291, "BSTAR": -0.010709306, "MEAN_MOTION_DOT": -0.01749777, "MEAN_MOTION_DDOT": 0}, "tle": {"line1": "1 66833U 25280N   25346.83335648 -.01749777  00000+0 -10709-1 0  9994", "line2": "2 66833  69.9931 198.5454 0003667 270.6200 290.0012 15.79845008  2913"}}, "geometry": {"type": "Point", "coordinates": [-164.44529873070184, -4.0255270758095]}}, {"type": "Feature", "properties": {"norad_id": 66834, "name": "STARLINK-35840", "group": "last-30-days", "lat": -2.2705151637567957, "lon": -163.80649182630066, "alt_km": 339.3317535706674, "timestamp": "2025-12-13T08:49:14.457988+00:00", "meta": {"OBJECT_NAME": "STARLINK-35840", "OBJECT_ID": "2025-280P", "EPOCH": "2025-12-12T20:00:01.999872", "MEAN_MOTION": 15.7986852, "ECCENTRICITY": 0.00036589, "INCLINATION": 69.9927, "RA_OF_ASC_NODE": 198.5427, "ARG_OF_PERICENTER": 268.1971, "MEAN_ANOMALY": 294.2549, "EPHEMERIS_TYPE": 0, "CLASSIFICATION_TYPE": "U", "NORAD_CAT_ID": 66834, "ELEMENT_SET_NO": 999, "REV_AT_EPOCH": 291, "BSTAR": -0.010742176, "MEAN_MOTION_DOT": -0.01756186, "MEAN_MOTION_DDOT": 0}, "tle": {"line1": "1 66834U 25280P   25346.83335648 -.01756186  00000+0 -10742-1 0  9994", "line2": "2 66834  69.9927 198.5427 0003658 268.1971 294.2549 15.79868520  2911"}}, "geometry": {"type": "Point", "coordinates": [-163.80649182630066, -2.2705151637567957]}}]}